{"type": "FeatureCollection", "features": [ {"type": "Feature", "properties": {"norad_id": 30714, "name": "FENGYUN 1C DEB", "group": "fengyun-1c-debris", "lat": -50.8444789505653, "lon": -165.39210876788476, "alt_km": 879.7994631307283, "timestamp": "2025-12-02T19:35:50.834160+00:00", "meta": {"OBJECT_NAME": "FENGYUN 1C DEB", "OBJECT_ID": "1999-025ARY", "EPOCH": "2025-12-01T18:50:55.802112", "MEAN_MOTION": 14.03258846, "ECCENTRICITY": 0.0066966, "INCLINATION": 98.8388, "RA_OF_ASC_NODE": 24.6224, "ARG_OF_PERICENTER": 313.4967, "MEAN_ANOMALY": 112.4422, "EPHEMERIS_TYPE": 0, "CLASSIFICATION_TYPE": "U", "NORAD_CAT_ID": 30714, "ELEMENT_SET_NO": 999, "REV_AT_EPOCH": 95839, "BSTAR": 0.00082837207, "MEAN_MOTION_DOT": 1.275e-05, "MEAN_MOTION_DDOT": 0}, "tle": {"line1": "1 30714U 99025ARY 25335.78536808  .00001275  00000+0  82837-3 0  9998", "line2": "2 30714  98.8388  24.6224 0066966 313.4967 112.4422 14.03258846958398"}}, "geometry": {"type": "Point", "coordinates": [-165.39210876788476, -50.8444789505653]}}, {"type": "Feature", "properties": {"norad_id": 30715, "name": "FENGYUN 1C DEB", "group": "fengyun-1c-debris", "lat": 49.09551170741163, "lon": 35.41152212921595, "alt_km": 879.581392464911, "timestamp": "2025-12-02T19:35:50.834170+00:00", "meta": {"OBJECT_NAME": "FENGYUN 1C DEB", "OBJECT_ID": "1999-025ARZ", "EPOCH": "2025-12-02T04:04:51.478464", "MEAN_MOTION": 14.14570334, "ECCENTRICITY": 0.00678343, "INCLINATION": 98.9789, "RA_OF_ASC_NODE": 45.2767, "ARG_OF_PERICENTER": 197.4215, "MEAN_ANOMALY": 162.463, "EPHEMERIS_TYPE": 0, "CLASSIFICATION_TYPE": "U", "NORAD_CAT_ID": 30715, "ELEMENT_SET_NO": 999, "REV_AT_EPOCH": 96032, "BSTAR": 0.0021568755, "MEAN_MOTION_DOT": 4.191e-05, "MEAN_MOTION_DDOT": 0}, "tle": {"line1": "1 30715U 99025ARZ 25336.17004026  .00004191  00000+0  21569-2 0  9999", "line2": "2 30715  98.9789  45.2767 0067834 197.4215 162.4630 14.14570334960320"}}, "geometry": {"type": "Point", "coordinates": [35.41152212921595, 49.09551170741163]}}, {"type": "Feature", "properties": {"norad_id": 30716, "name": "FENGYUN 1C DEB", "group": "fengyun-1c-debris", "lat": 81.07801156773372, "lon": 63.14330678802364, "alt_km": 614.3246866860118, "timestamp": "2025-12-02T19:35:50.834181+00:00", "meta": {"OBJECT_NAME": "FENGYUN 1C DEB", "OBJECT_ID": "1999-025ASA", "EPOCH": "2025-12-02T11:21:21.663360", "MEAN_MOTION": 14.78374587, "ECCENTRICITY": 0.002008, "INCLINATION": 98.8724, "RA_OF_ASC_NODE": 158.4855, "ARG_OF_PERICENTER": 118.6065, "MEAN_ANOMALY": 305.8566, "EPHEMERIS_TYPE": 0, "CLASSIFICATION_TYPE": "U", "NORAD_CAT_ID": 30716, "ELEMENT_SET_NO": 999, "REV_AT_EPOCH": 97672, "BSTAR": 0.0051098, "MEAN_MOTION_DOT": 0.00037455, "MEAN_MOTION_DDOT": 0}, "tle": {"line1": "1 30716U 99025ASA 25336.47316740  .00037455  00000+0  51098-2 0  9991", "line2": "2 30716  98.8724 158.4855 0020080 118.6065 305.8566 14.78374587976728"}}, "geometry": {"type": "Point", "coordinates": [63.14330678802364, 81.07801156773372]}}, {"type": "Feature", "properties": {"norad_id": 30717, "name": "FENGYUN 1C DEB", "group": "fengyun-1c-debris", "lat": -31.620893373427275, "lon": -138.23662585145834, "alt_km": 820.4327583685053, "timestamp": "2025-12-02T19:35:50.834191+00:00", "meta": {"OBJECT_NAME": "FENGYUN 1C DEB", "OBJECT_ID": "1999-025ASB", "EPOCH": "2025-11-30T02:21:23.039712", "MEAN_MOTION": 14.20428729, "ECCENTRICITY": 0.00475668, "INCLINATION": 99.0182, "RA_OF_ASC_NODE": 44.6037, "ARG_OF_PERICENTER": 294.0563, "MEAN_ANOMALY": 65.5639, "EPHEMERIS_TYPE": 0, "CLASSIFICATION_TYPE": "U", "NORAD_CAT_ID": 30717, "ELEMENT_SET_NO": 999, "REV_AT_EPOCH": 96357, "BSTAR": 0.0015014558, "MEAN_MOTION_DOT": 3.211e-05, "MEAN_MOTION_DDOT": 0}, "tle": {"line1": "1 30717U 99025ASB 25334.09818333  .00003211  00000+0  15015-2 0  9995", "line2": "2 30717  99.0182  44.6037 0047566 294.0563  65.5639 14.20428729963573"}}, "geometry": {"type": "Point", "coordinates": [-138.23662585145834, -31.620893373427275]}}, {"type": "Feature", "properties": {"norad_id": 30718, "name": "FENGYUN 1C DEB", "group": "fengyun-1c-debris", "lat": 32.38148520882937, "lon": -117.2027689363661, "alt_km": 775.9190038537881, "timestamp": "2025-12-02T19:35:50.834201+00:00", "meta": {"OBJECT_NAME": "FENGYUN 1C DEB", "OBJECT_ID": "1999-025ASC", "EPOCH": "2025-12-01T10:52:16.102560", "MEAN_MOTION": 14.24206178, "ECCENTRICITY": 0.00577251, "INCLINATION": 98.8914, "RA_OF_ASC_NODE": 55.7207, "ARG_OF_PERICENTER": 188.0181, "MEAN_ANOMALY": 172.008, "EPHEMERIS_TYPE": 0, "CLASSIFICATION_TYPE": "U", "NORAD_CAT_ID": 30718, "ELEMENT_SET_NO": 999, "REV_AT_EPOCH": 96613, "BSTAR": 0.0020862694, "MEAN_MOTION_DOT": 4.85e-05, "MEAN_MOTION_DDOT": 0}, "tle": {"line1": "1 30718U 99025ASC 25335.45296415  .00004850  00000+0  20863-2 0  9995", "line2": "2 30718  98.8914  55.7207 0057725 188.0181 172.0080 14.24206178966137"}}, "geometry": {"type": "Point", "coordinates": [-117.2027689363661, 32.38148520882937]}}, {"type": "Feature", "properties": {"norad_id": 30719, "name": "FENGYUN 1C DEB", "group": "fengyun-1c-debris", "lat": -5.4793454192249555, "lon": 118.74416259998972, "alt_km": 707.1028675031021, "timestamp": "2025-12-02T19:35:50.834212+00:00", "meta": {"OBJECT_NAME": "FENGYUN 1C DEB", "OBJECT_ID": "1999-025ASD", "EPOCH": "2025-11-30T08:21:14.488704", "MEAN_MOTION": 14.58564143, "ECCENTRICITY": 0.0011942, "INCLINATION": 98.8885, "RA_OF_ASC_NODE": 115.2455, "ARG_OF_PERICENTER": 227.1926, "MEAN_ANOMALY": 132.8268, "EPHEMERIS_TYPE": 0, "CLASSIFICATION_TYPE": "U", "NORAD_CAT_ID": 30719, "ELEMENT_SET_NO": 999, "REV_AT_EPOCH": 97268, "BSTAR": 0.004261104, "MEAN_MOTION_DOT": 0.0001984, "MEAN_MOTION_DDOT": 0}, "tle": {"line1": "1 30719U 99025ASD 25334.34808436  .00019840  00000+0  42611-2 0  9995", "line2": "2 30719  98.8885 115.2455 0011942 227.1926 132.8268 14.58564143972680"}}, "geometry": {"type": "Point", "coordinates": [118.74416259998972, -5.4793454192249555]}}, {"type": "Feature", "properties": {"norad_id": 30720, "name": "FENGYUN 1C DEB", "group": "fengyun-1c-debris", "lat": -5.6441930506512215, "lon": 150.8458456829624, "alt_km": 775.2168334767211, "timestamp": "2025-12-02T19:35:50.834222+00:00", "meta": {"OBJECT_NAME": "FENGYUN 1C DEB", "OBJECT_ID": "1999-025ASE", "EPOCH": "2025-12-01T10:17:46.773312", "MEAN_MOTION": 14.2908859, "ECCENTRICITY": 0.00323724, "INCLINATION": 99.0369, "RA_OF_ASC_NODE": 148.5071, "ARG_OF_PERICENTER": 2.1711, "MEAN_ANOMALY": 57.7271, "EPHEMERIS_TYPE": 0, "CLASSIFICATION_TYPE": "U", "NORAD_CAT_ID": 30720, "ELEMENT_SET_NO": 999, "REV_AT_EPOCH": 97327, "BSTAR": 0.00040425799, "MEAN_MOTION_DOT": 9.83e-06, "MEAN_MOTION_DDOT": 0}, "tle": {"line1": "1 30720U 99025ASE 25335.42901358  .00000983  00000+0  40426-3 0  9995", "line2": "2 30720  99.0369 148.5071 0032372   2.1711  57.7271 14.29088590973278"}}, "geometry": {"type": "Point", "coordinates": [150.8458456829624, -5.6441930506512215]}}, {"type": "Feature", "properties": {"norad_id": 30721, "name": "FENGYUN 1C DEB", "group": "fengyun-1c-debris", "lat": 23.816269844707985, "lon": -68.69469602942578, "alt_km": 672.0660295320886, "timestamp": "2025-12-02T19:35:50.834233+00:00", "meta": {"OBJECT_NAME": "FENGYUN 1C DEB", "OBJECT_ID": "1999-025ASF", "EPOCH": "2025-12-02T07:45:01.844064", "MEAN_MOTION": 14.712053, "ECCENTRICITY": 0.002731, "INCLINATION": 98.7095, "RA_OF_ASC_NODE": 106.898, "ARG_OF_PERICENTER": 13.6438, "MEAN_ANOMALY": 49.0839, "EPHEMERIS_TYPE": 0, "CLASSIFICATION_TYPE": "U", "NORAD_CAT_ID": 30721, "ELEMENT_SET_NO": 999, "REV_AT_EPOCH": 97689, "BSTAR": 0.0039475, "MEAN_MOTION_DOT": 0.00024498, "MEAN_MOTION_DDOT": 0}, "tle": {"line1": "1 30721U 99025ASF 25336.32293801  .00024498  00000+0  39475-2 0  9991", "line2": "2 30721  98.7095 106.8980 0027310  13.6438  49.0839 14.71205300976898"}}, "geometry": {"type": "Point", "coordinates": [-68.69469602942578, 23.816269844707985]}}, {"type": "Feature", "properties": {"norad_id": 30723, "name": "FENGYUN 1C DEB", "group": "fengyun-1c-debris", "lat": 31.397852214253174, "lon": 57.042020827034136, "alt_km": 754.9618817270612, "timestamp": "2025-12-02T19:35:50.834243+00:00", "meta": {"OBJECT_NAME": "FENGYUN 1C DEB", "OBJECT_ID": "1999-025ASH", "EPOCH": "2025-12-02T04:35:39.037920", "MEAN_MOTION": 14.41098015, "ECCENTRICITY": 0.00147271, "INCLINATION": 98.8451, "RA_OF_ASC_NODE": 61.8492, "ARG_OF_PERICENTER": 293.1753, "MEAN_ANOMALY": 97.2405, "EPHEMERIS_TYPE": 0, "CLASSIFICATION_TYPE": "U", "NORAD_CAT_ID": 30723, "ELEMENT_SET_NO": 999, "REV_AT_EPOCH": 97219, "BSTAR": 0.0025041306, "MEAN_MOTION_DOT": 8.037e-05, "MEAN_MOTION_DDOT": 0}, "tle": {"line1": "1 30723U 99025ASH 25336.19142405  .00008037  00000+0  25041-2 0  9996", "line2": "2 30723  98.8451  61.8492 0014727 293.1753  97.2405 14.41098015972191"}}, "geometry": {"type": "Point", "coordinates": [57.042020827034136, 31.397852214253174]}}, {"type": "Feature", "properties": {"norad_id": 30724, "name": "FENGYUN 1C DEB", "group": "fengyun-1c-debris", "lat": 80.52366342032036, "lon": 60.229028649734246, "alt_km": 824.401746241313, "timestamp": "2025-12-02T19:35:50.834253+00:00", "meta": {"OBJECT_NAME": "FENGYUN 1C DEB", "OBJECT_ID": "1999-025ASJ", "EPOCH": "2025-12-02T10:57:10.970208", "MEAN_MOTION": 14.37002332, "ECCENTRICITY": 0.0093055, "INCLINATION": 99.3161, "RA_OF_ASC_NODE": 160.2865, "ARG_OF_PERICENTER": 290.0804, "MEAN_ANOMALY": 99.0491, "EPHEMERIS_TYPE": 0, "CLASSIFICATION_TYPE": "U", "NORAD_CAT_ID": 30724, "ELEMENT_SET_NO": 999, "REV_AT_EPOCH": 98305, "BSTAR": 0.00053379, "MEAN_MOTION_DOT": 1.61e-05, "MEAN_MOTION_DDOT": 0}, "tle": {"line1": "1 30724U 99025ASJ 25336.45637697  .00001610  00000+0  53379-3 0  9994", "line2": "2 30724  99.3161 160.2865 0093055 290.0804  99.0491 14.37002332983052"}}, "geometry": {"type": "Point", "coordinates": [60.229028649734246, 80.52366342032036]}}]}